NORAD_CAT_ID,OBJECT_NAME,OBJECT_TYPE,EPOCH,MEAN_MOTION,ECCENTRICITY,INCLINATION,RA_OF_ASC_NODE,ARG_OF_PERICENTER,MEAN_ANOMALY,BSTAR,MEAN_MOTION_DOT,MEAN_MOTION_DDOT,TLE_LINE0,TLE_LINE1,TLE_LINE2,SEMIMAJOR_AXIS,PERIOD,APOGEE,PERIGEE,DECAYED
51746.0,STARLINK-3502,PAYLOAD,2023-01-25 23:34:51,15.08867587,0.0001929,53.2166,20.98,84.3131,275.8081,0.0015873,0.00025083,0.0,0 STARLINK-3502,1 51746U 22016AJ  23025.98253829  .00025083  00000-0  15873-2 0  9996,2 51746  53.2166  20.9800 0001929  84.3131 275.8081 15.08867587 52911,6917.795999999999,95.436,540.996,538.327,0.0
51746.0,STARLINK-3502,PAYLOAD,2023-01-26 09:07:09,15.08864607,0.0001373,53.2175,19.1958,86.9162,273.1988,0.00084148,0.00013138,0.0,0 STARLINK-3502,1 51746U 22016AJ  23026.37997331  .00013138  00000-0  84148-3 0  9993,2 51746  53.2175  19.1958 0001373  86.9162 273.1988 15.08864607 51859,6917.805,95.436,540.62,538.72,0.0
51746.0,STARLINK-3502,PAYLOAD,2023-01-27 05:47:10,15.08847758,0.0001205,53.2175,15.3298,91.4623,268.6507,0.0004036,6.143e-05,0.0,0 STARLINK-3502,1 51746U 22016AJ  23027.24109539  .00006143  00000-0  40360-3 0  9991,2 51746  53.2175  15.3298 0001205  91.4623 268.6507 15.08847758 53105,6917.857,95.437,540.555,538.888,0.0
51746.0,STARLINK-3502,PAYLOAD,2023-01-27 08:57:56,15.08849755,0.0001226,53.2179,14.7348,91.7181,268.3952,0.00053974,8.315e-05,0.0,0 STARLINK-3502,1 51746U 22016AJ  23027.37357501  .00008315  00000-0  53974-3 0  9997,2 51746  53.2179  14.7348 0001226  91.7181 268.3952 15.08849755 52001,6917.851,95.437,540.564,538.867,0.0
51746.0,STARLINK-3502,PAYLOAD,2023-01-28 05:37:58,15.08837743,0.0001025,53.2176,10.8697,91.6014,268.5095,0.00088915,0.0001389,0.0,0 STARLINK-3502,1 51746U 22016AJ  23028.23470280  .00013890  00000-0  88915-3 0  9990,2 51746  53.2176  10.8697 0001025  91.6014 268.5095 15.08837743 53255,6917.887,95.438,540.461,539.043,0.0
51746.0,STARLINK-3502,PAYLOAD,2023-01-28 08:48:44,15.08841388,0.0001065,53.2179,10.2749,95.7569,264.3544,0.0010226,0.00016025,0.0,0 STARLINK-3502,1 51746U 22016AJ  23028.36718299  .00016025  00000-0  10226-2 0  9991,2 51746  53.2179  10.2749 0001065  95.7569 264.3544 15.08841388 52155,6917.876,95.437,540.478,539.004,0.0
51746.0,STARLINK-3502,PAYLOAD,2023-01-29 07:04:08,15.08847105,0.0001037,53.2174,6.1125,93.2882,266.8229,0.00041627,6.345e-05,0.0,0 STARLINK-3502,1 51746U 22016AJ  23029.29454222  .00006345  00000-0  41627-3 0  9991,2 51746  53.2174   6.1125 0001037  93.2882 266.8229 15.08847105 53412,6917.859,95.437,540.441,539.006,0.0
51746.0,STARLINK-3502,PAYLOAD,2023-01-30 08:30:18,15.08848343,0.0001067,53.2169,1.3555,89.2914,270.82,0.00024184,3.564e-05,0.0,0 STARLINK-3502,1 51746U 22016AJ  23030.35438135  .00003564  00000-0  24184-3 0  9994,2 51746  53.2169   1.3555 0001067  89.2914 270.8200 15.08848343 53570,6917.855,95.437,540.458,538.982,0.0
51746.0,STARLINK-3502,PAYLOAD,2023-01-31 06:45:42,15.08847523,0.0001185,53.2163,357.191,84.3871,275.7256,0.00017481,2.496e-05,0.0,0 STARLINK-3502,1 51746U 22016AJ  23031.28174101  .00002496  00000-0  17481-3 0  9992,2 51746  53.2163 357.1910 0001185  84.3871 275.7256 15.08847523 53710,6917.857,95.437,540.542,538.903,0.0
51746.0,STARLINK-3502,PAYLOAD,2023-02-01 06:36:29,15.08853015,0.0001133,53.2159,352.7304,90.2614,269.8508,0.0002019,2.928e-05,0.0,0 STARLINK-3502,1 51746U 22016AJ  23032.27533743  .00002928  00000-0  20190-3 0  9994,2 51746  53.2159 352.7304 0001133  90.2614 269.8508 15.08853015 52746,6917.841,95.437,540.489,538.922,0.0
51746.0,STARLINK-3502,PAYLOAD,2023-02-02 03:16:30,15.08842323,0.0001055,53.2165,348.8676,85.0349,275.0763,2.6809e-05,1.39e-06,0.0,0 STARLINK-3502,1 51746U 22016AJ  23033.13646374  .00000139  00000-0  26809-4 0  9991,2 51746  53.2165 348.8676 0001055  85.0349 275.0763 15.08842323 53991,6917.873,95.437,540.468,539.008,0.0
51746.0,STARLINK-3502,PAYLOAD,2023-02-02 06:27:16,15.08846732,0.0001433,53.2147,348.27,93.9641,266.1515,0.00016769,2.382e-05,0.0,0 STARLINK-3502,1 51746U 22016AJ  23033.26894265  .00002382  00000-0  16769-3 0  9994,2 51746  53.2147 348.2700 0001433  93.9641 266.1515 15.08846732 52898,6917.86,95.437,540.716,538.733,0.0
51746.0,STARLINK-3502,PAYLOAD,2023-02-03 06:18:03,15.08858108,0.0001168,53.216,343.8085,99.5151,260.5973,0.00040767,6.209e-05,0.0,0 STARLINK-3502,1 51746U 22016AJ  23034.26253621  .00006209  00000-0  40767-3 0  9997,2 51746  53.2160 343.8085 0001168  99.5151 260.5973 15.08858108 54161,6917.825,95.436,540.498,538.882,0.0
51746.0,STARLINK-3502,PAYLOAD,2023-02-03 15:50:22,15.08842141,9.18e-05,53.2169,342.0239,103.3858,256.7237,0.0001382,1.913e-05,0.0,0 STARLINK-3502,1 51746U 22016AJ  23034.65998203  .00001913  00000-0  13820-3 0  9999,2 51746  53.2169 342.0239 0000918 103.3858 256.7237 15.08842141 54229,6917.874,95.437,540.374,539.104,0.0
51746.0,STARLINK-3502,PAYLOAD,2023-02-04 06:08:50,15.08840926,0.000114,53.2153,339.3484,82.6287,277.4834,7.404e-05,8.91e-06,0.0,0 STARLINK-3502,1 51746U 22016AJ  23035.25614384  .00000891  00000-0  74040-4 0  9997,2 51746  53.2153 339.3484 0001140  82.6287 277.4834 15.08840926 53193,6917.878,95.437,540.531,538.954,0.0
51746.0,STARLINK-3502,PAYLOAD,2023-02-04 20:27:19,15.08838213,0.0001038,53.2154,336.6724,79.9877,280.1233,8.8063e-05,1.114e-05,0.0,0 STARLINK-3502,1 51746U 22016AJ  23035.85230638  .00001114  00000-0  88063-4 0  9998,2 51746  53.2154 336.6724 0001038  79.9877 280.1233 15.08838213 54406,6917.886,95.438,540.469,539.033,0.0
51746.0,STARLINK-3502,PAYLOAD,2023-02-05 04:24:14,15.0884925,0.0001139,53.2169,335.1858,88.2172,271.8951,0.00021707,3.169e-05,0.0,0 STARLINK-3502,1 51746U 22016AJ  23036.18350005  .00003169  00000-0  21707-3 0  9999,2 51746  53.2169 335.1858 0001139  88.2172 271.8951 15.08849250 54459,6917.852,95.437,540.505,538.929,0.0
51746.0,STARLINK-3502,PAYLOAD,2023-02-05 05:59:37,15.0885293,0.0001106,53.2166,334.8885,88.1634,271.9485,0.00030826,4.623e-05,0.0,0 STARLINK-3502,1 51746U 22016AJ  23036.24973915  .00004623  00000-0  30826-3 0  9995,2 51746  53.2166 334.8885 0001106  88.1634 271.9485 15.08852930 53347,6917.841,95.437,540.471,538.941,0.0
51746.0,STARLINK-3502,PAYLOAD,2023-02-05 20:18:06,15.08836949,0.0001111,53.2158,332.2112,98.3636,261.7482,0.00010911,1.449e-05,0.0,0 STARLINK-3502,1 51746U 22016AJ  23036.84590682  .00001449  00000-0  10911-3 0  9993,2 51746  53.2158 332.2112 0001111  98.3636 261.7482 15.08836949 54554,6917.89,95.438,540.523,538.986,0.0
51746.0,STARLINK-3502,PAYLOAD,2023-02-06 05:50:24,15.08847237,8.69e-05,53.2168,330.4283,82.7529,277.3562,0.00032432,4.879e-05,0.0,0 STARLINK-3502,1 51746U 22016AJ  23037.24334450  .00004879  00000-0  32432-3 0  9999,2 51746  53.2168 330.4283 0000869  82.7529 277.3562 15.08847237 54612,6917.858,95.437,540.324,539.122,0.0
51746.0,STARLINK-3502,PAYLOAD,2023-02-06 20:08:53,15.08843213,8.5e-05,53.2166,327.7523,85.9543,274.1546,0.00027738,4.13e-05,0.0,0 STARLINK-3502,1 51746U 22016AJ  23037.83950650  .00004130  00000-0  27738-3 0  9993,2 51746  53.2166 327.7523 0000850  85.9543 274.1546 15.08843213 54704,6917.871,95.437,540.324,539.148,0.0
51746.0,STARLINK-3502,PAYLOAD,2023-02-07 05:41:11,15.08868302,7.96e-05,53.2159,325.968,79.0281,281.08,0.00096181,0.00015064,0.0,0 STARLINK-3502,1 51746U 22016AJ  23038.23693918  .00015064  00000-0  96181-3 0  9995,2 51746  53.2159 325.9680 0000796  79.0281 281.0800 15.08868302 54764,6917.794,95.436,540.21,539.108,0.0
51746.0,STARLINK-3502,PAYLOAD,2023-02-07 19:59:40,15.08846371,0.0001265,53.216,323.2922,104.5193,255.5939,0.00010965,1.458e-05,0.0,0 STARLINK-3502,1 51746U 22016AJ  23038.83310195  .00001458  00000-0  10965-3 0  9992,2 51746  53.2160 323.2922 0001265 104.5193 255.5939 15.08846371 53731,6917.861,95.437,540.601,538.851,0.0
51746.0,STARLINK-3502,PAYLOAD,2023-02-07 23:10:26,15.08852061,0.0001478,53.2163,322.6972,116.7609,243.3534,0.00027446,4.084e-05,0.0,0 STARLINK-3502,1 51746U 22016AJ  23038.96557971  .00004084  00000-0  27446-3 0  9991,2 51746  53.2163 322.6972 0001478 116.7609 243.3534 15.08852061 54870,6917.844,95.437,540.731,538.686,0.0
51746.0,STARLINK-3502,PAYLOAD,2023-02-08 03:56:35,15.08863491,8.73e-05,53.2158,321.8052,95.5165,264.5927,0.00087126,0.00013614,0.0,0 STARLINK-3502,1 51746U 22016AJ  23039.16429734  .00013614  00000-0  87126-3 0  9999,2 51746  53.2158 321.8052 0000873  95.5165 264.5927 15.08863491 53782,6917.809,95.436,540.278,539.07,0.0
51746.0,STARLINK-3502,PAYLOAD,2023-02-09 03:47:23,15.08855575,0.000132,53.2154,317.3449,88.719,271.3953,0.001864,0.00029515,0.0,0 STARLINK-3502,1 51746U 22016AJ  23040.15790618  .00029515  00000-0  18640-2 0  9993,2 51746  53.2154 317.3449 0001320  88.7190 271.3953 15.08855575 55059,6917.833,95.437,540.611,538.785,0.0
51746.0,STARLINK-3502,PAYLOAD,2023-02-10 00:27:24,15.08857185,0.0001395,53.2151,313.4797,103.9448,256.17,0.0019877,0.00031503,0.0,0 STARLINK-3502,1 51746U 22016AJ  23041.01903184  .00031503  00000-0  19877-2 0  9996,2 51746  53.2151 313.4797 0001395 103.9448 256.1700 15.08857185 55181,6917.828,95.436,540.658,538.728,0.0
51746.0,STARLINK-3502,PAYLOAD,2023-02-10 03:38:10,15.08879912,0.0001294,53.2148,312.8846,102.8109,257.3028,0.0031027,0.00049493,0.0,0 STARLINK-3502,1 51746U 22016AJ  23041.15150857  .00049493  00000-0  31027-2 0  9990,2 51746  53.2148 312.8846 0001294 102.8109 257.3028 15.08879912 54081,6917.758,95.435,540.519,538.728,0.0
51746.0,STARLINK-3502,PAYLOAD,2023-02-11 05:04:21,15.0885217,0.0001164,53.2149,308.1262,87.1105,273.002,0.0028164,0.00044835,0.0,0 STARLINK-3502,1 51746U 22016AJ  23042.21135735  .00044835  00000-0  28164-2 0  9999,2 51746  53.2149 308.1262 0001164  87.1105 273.0020 15.08852170 55365,6917.843,95.437,540.513,538.903,0.0
51746.0,STARLINK-3502,PAYLOAD,2023-02-11 17:47:26,15.0883949,0.0001566,53.2152,305.7455,102.7317,257.385,0.0026007,0.00041345,0.0,0 STARLINK-3502,1 51746U 22016AJ  23042.74128255  .00041345  00000-0  26007-2 0  9993,2 51746  53.2152 305.7455 0001566 102.7317 257.3850 15.08839490 55446,6917.882,95.438,540.83,538.664,0.0
